0 SL-12 R/B(AUX MOTOR)
1 20081U 89039G   13281.86555991  .00000172  00000-0  37630-3 0  5744
2 20081 064.9286 336.7493 5663870 323.5618 021.4690 04.38066450381039
0 SL-12 R/B(AUX MOTOR)
1 20081U 89039G   13283.00872722  .00000163  00000-0  37501-3 0  5754
2 20081 064.9295 336.3088 5663774 323.5116 024.2854 04.38067852381086
0 SL-12 R/B(AUX MOTOR)
1 20081U 89039G   13284.14615017  .00000192  00000-0  41181-3 0  5764
2 20081 064.9306 335.8707 5663682 323.4616 018.0469 04.38068381381130
0 SL-12 R/B(AUX MOTOR)
1 20081U 89039G   13285.28879759  .00000167  00000-0  33921-3 0  5771
2 20081 064.9316 335.4306 5663584 323.4115 020.0481 04.38069164381189
0 SL-12 R/B(AUX MOTOR)
1 20081U 89039G   13287.11347171  .00000244  00000-0  40007-3 0  5783
2 20081 064.9327 334.7277 5663428 323.3312 017.6408 04.38070090381265
0 SL-12 R/B(AUX MOTOR)
1 20081U 89039G   13288.53197356  .00000331  00000-0  50949-3 0  5792
2 20081 064.9341 334.1818 5663287 323.2684 094.6863 04.38071533381320
0 SL-12 R/B(AUX MOTOR)
1 20081U 89039G   13289.85499747  .00000311  00000-0  47865-3 0  5800
2 20081 064.9351 333.6723 5663145 323.2105 021.1650 04.38071955381384
0 SL-12 R/B(AUX MOTOR)
1 20081U 89039G   13290.99875263  .00000282  00000-0  45719-3 0  5812
2 20081 064.9359 333.2321 5663012 323.1603 024.9305 04.38072588381434
0 SL-12 R/B(AUX MOTOR)
1 20081U 89039G   13295.10293699  .00000236  00000-0  52960-3 0  5823
2 20081 064.9390 331.6522 5662601 322.9790 017.4754 04.38075141381614
